NORAD_CAT_ID,OBJECT_NAME,OBJECT_TYPE,EPOCH,MEAN_MOTION,ECCENTRICITY,INCLINATION,RA_OF_ASC_NODE,ARG_OF_PERICENTER,MEAN_ANOMALY,BSTAR,MEAN_MOTION_DOT,MEAN_MOTION_DDOT,TLE_LINE0,TLE_LINE1,TLE_LINE2,SEMIMAJOR_AXIS,PERIOD,APOGEE,PERIGEE,DECAYED
52607.0,STARLINK-3947,PAYLOAD,2023-03-21 09:36:16,15.08817087,0.0001221,53.2155,111.6985,92.8789,267.2343,-0.00024253,-4.143e-05,0.0,0 STARLINK-3947,1 52607U 22052K   23080.40018686 -.00004143  00000-0 -24253-3 0  9990,2 52607  53.2155 111.6985 0001221  92.8789 267.2343 15.08817087 47084,6917.95,95.439,540.66,538.971,0.0
52607.0,STARLINK-3947,PAYLOAD,2023-03-21 19:08:34,15.08830657,0.0001126,53.2154,109.912,91.5537,268.5584,5.437e-05,5.77e-06,0.0,0 STARLINK-3947,1 52607U 22052K   23080.79762675  .00000577  00000-0  54370-4 0  9995,2 52607  53.2154 109.9120 0001126  91.5537 268.5584 15.08830657 47523,6917.909,95.438,540.553,538.995,0.0
52607.0,STARLINK-3947,PAYLOAD,2023-03-22 09:27:03,15.08858911,0.0001114,53.2145,107.2344,92.3081,267.8038,0.0014578,0.00023001,0.0,0 STARLINK-3947,1 52607U 22052K   23081.39378743  .00023001  00000-0  14578-2 0  9992,2 52607  53.2145 107.2344 0001114  92.3081 267.8038 15.08858911 47611,6917.823,95.436,540.458,538.917,0.0
52607.0,STARLINK-3947,PAYLOAD,2023-03-22 18:59:21,15.08859298,0.0001315,53.2141,105.4513,71.5696,288.5439,0.00071681,0.00011144,0.0,0 STARLINK-3947,1 52607U 22052K   23081.79122492  .00011144  00000-0  71681-3 0  9998,2 52607  53.2141 105.4513 0001315  71.5696 288.5439 15.08859298 47679,6917.821,95.436,540.596,538.777,0.0
52607.0,STARLINK-3947,PAYLOAD,2023-03-23 07:42:26,15.0886506,0.0001172,53.2142,103.07,89.4871,270.6255,0.00062203,9.632e-05,0.0,0 STARLINK-3947,1 52607U 22052K   23082.32113758  .00009632  00000-0  62203-3 0  9992,2 52607  53.2142 103.0700 0001172  89.4871 270.6255 15.08865060 47375,6917.804,95.436,540.48,538.858,0.0
52607.0,STARLINK-3947,PAYLOAD,2023-03-23 18:50:07,15.08869734,0.000133,53.2149,100.9908,61.758,298.3546,0.00089008,0.00013918,0.0,0 STARLINK-3947,1 52607U 22052K   23082.78481320  .00013918  00000-0  89008-3 0  9999,2 52607  53.2149 100.9908 0001330  61.7580 298.3546 15.08869734 47826,6917.79,95.436,540.575,538.734,0.0
52607.0,STARLINK-3947,PAYLOAD,2023-03-24 07:33:12,15.08877463,0.0001526,53.216,98.6105,91.5108,268.6059,0.0012995,0.00020475,0.0,0 STARLINK-3947,1 52607U 22052K   23083.31472826  .00020475  00000-0  12995-2 0  9996,2 52607  53.2160  98.6105 0001526  91.5108 268.6059 15.08877463 47901,6917.766,95.435,540.687,538.575,0.0
52607.0,STARLINK-3947,PAYLOAD,2023-03-25 04:13:13,15.08829434,0.0001009,53.2154,94.7449,75.9913,284.1191,-0.00036115,-6.029e-05,0.0,0 STARLINK-3947,1 52607U 22052K   23084.17585428 -.00006029  00000-0 -36115-3 0  9996,2 52607  53.2154  94.7449 0001009  75.9913 284.1191 15.08829434 48038,6917.913,95.438,540.476,539.08,0.0
52607.0,STARLINK-3947,PAYLOAD,2023-03-25 12:10:09,15.08835879,0.0001142,53.2158,93.2552,118.1154,241.9954,-9.7878e-05,-1.845e-05,0.0,0 STARLINK-3947,1 52607U 22052K   23084.50705507 -.00001845  00000-0 -97878-4 0  9990,2 52607  53.2158  93.2552 0001142 118.1154 241.9954 15.08835879 47707,6917.893,95.438,540.548,538.968,0.0
52607.0,STARLINK-3947,PAYLOAD,2023-03-26 00:53:14,15.08838517,9.43e-05,53.2162,90.8773,107.3621,252.7474,7.4306e-06,-1.69e-06,0.0,0 STARLINK-3947,1 52607U 22052K   23085.03697520 -.00000169  00000-0  74306-5 0  9993,2 52607  53.2162  90.8773 0000943 107.3621 252.7474 15.08838517 48167,6917.885,95.438,540.402,539.098,0.0
52607.0,STARLINK-3947,PAYLOAD,2023-03-26 16:47:05,15.08843771,9.17e-05,53.2162,87.9045,110.117,249.9921,0.00024268,3.577e-05,0.0,0 STARLINK-3947,1 52607U 22052K   23085.69937468  .00003577  00000-0  24268-3 0  9998,2 52607  53.2162  87.9045 0000917 110.1170 249.9921 15.08843771 47889,6917.869,95.437,540.368,539.099,0.0
52607.0,STARLINK-3947,PAYLOAD,2023-03-27 03:54:48,15.08834334,8.86e-05,53.2169,85.8243,96.0637,264.0456,0.00010377,1.364e-05,0.0,0 STARLINK-3947,1 52607U 22052K   23086.16306030  .00001364  00000-0  10377-3 0  9994,2 52607  53.2169  85.8243 0000886  96.0637 264.0456 15.08834334 48335,6917.898,95.438,540.376,539.15,0.0
52607.0,STARLINK-3947,PAYLOAD,2023-03-27 08:40:57,15.08840192,0.0001065,53.218,84.9333,108.1696,251.9412,0.00019102,2.754e-05,0.0,0 STARLINK-3947,1 52607U 22052K   23086.36177839  .00002754  00000-0  19102-3 0  9998,2 52607  53.2180  84.9333 0001065 108.1696 251.9412 15.08840192 47984,6917.88,95.438,540.482,539.008,0.0
52607.0,STARLINK-3947,PAYLOAD,2023-03-27 16:37:53,15.08836016,0.0001087,53.2178,83.447,79.3514,280.76,5.9946e-05,6.66e-06,0.0,0 STARLINK-3947,1 52607U 22052K   23086.69298204  .00000666  00000-0  59946-4 0  9995,2 52607  53.2178  83.4470 0001087  79.3514 280.7600 15.08836016 48035,6917.893,95.438,540.51,539.006,0.0
52607.0,STARLINK-3947,PAYLOAD,2023-03-28 05:20:58,15.08842665,9.88e-05,53.2176,81.0677,88.4739,271.6366,8.7593e-05,1.107e-05,0.0,0 STARLINK-3947,1 52607U 22052K   23087.22289890  .00001107  00000-0  87593-4 0  9996,2 52607  53.2176  81.0677 0000988  88.4739 271.6366 15.08842665 48490,6917.872,95.437,540.421,539.054,0.0
52607.0,STARLINK-3947,PAYLOAD,2023-03-28 11:42:30,15.08850921,9.78e-05,53.2175,79.8767,88.8794,271.231,0.00020993,3.056e-05,0.0,0 STARLINK-3947,1 52607U 22052K   23087.48785376  .00003056  00000-0  20993-3 0  9999,2 52607  53.2175  79.8767 0000978  88.8794 271.2310 15.08850921 48150,6917.847,95.437,540.389,539.035,0.0
52607.0,STARLINK-3947,PAYLOAD,2023-03-28 22:50:13,15.08836569,9.59e-05,53.2174,77.7962,73.5406,286.5692,8.1409e-05,1.008e-05,0.0,0 STARLINK-3947,1 52607U 22052K   23087.95154216  .00001008  00000-0  81409-4 0  9999,2 52607  53.2174  77.7962 0000959  73.5406 286.5692 15.08836569 48607,6917.891,95.438,540.419,539.092,0.0
52607.0,STARLINK-3947,PAYLOAD,2023-03-29 06:47:08,15.08849139,9.81e-05,53.2165,76.3084,110.3824,249.7274,0.00021349,3.112e-05,0.0,0 STARLINK-3947,1 52607U 22052K   23088.28273470  .00003112  00000-0  21349-3 0  9994,2 52607  53.2165  76.3084 0000981 110.3824 249.7274 15.08849139 48655,6917.852,95.437,540.396,539.039,0.0
52607.0,STARLINK-3947,PAYLOAD,2023-03-29 11:33:17,15.08857218,9.35e-05,53.2164,75.4154,104.6816,255.428,0.00030045,4.499e-05,0.0,0 STARLINK-3947,1 52607U 22052K   23088.48145032  .00004499  00000-0  30045-3 0  9990,2 52607  53.2164  75.4154 0000935 104.6816 255.4280 15.08857218 48308,6917.828,95.436,540.34,539.046,0.0
52607.0,STARLINK-3947,PAYLOAD,2023-03-29 16:19:28,15.08823622,0.0001723,53.2166,74.5231,82.4536,277.6652,-0.00024121,-4.123e-05,0.0,0 STARLINK-3947,1 52607U 22052K   23088.68018771 -.00004123  00000-0 -24121-3 0  9995,2 52607  53.2166  74.5231 0001723  82.4536 277.6652 15.08823622 48710,6917.93,95.439,540.987,538.603,0.0
52607.0,STARLINK-3947,PAYLOAD,2023-03-30 05:02:33,15.08827369,4.4e-05,53.2159,72.1483,68.2042,291.8997,-0.00010956,-2.03e-05,0.0,0 STARLINK-3947,1 52607U 22052K   23089.21010720 -.00002030  00000-0 -10956-3 0  9997,2 52607  53.2159  72.1483 0000440  68.2042 291.8997 15.08827369 48794,6917.919,95.438,540.088,539.48,0.0
52607.0,STARLINK-3947,PAYLOAD,2023-03-31 09:39:29,15.08870013,0.0001092,53.215,66.7955,68.8188,291.2921,0.0011923,0.00018754,0.0,0 STARLINK-3947,1 52607U 22052K   23090.40241939  .00018754  00000-0  11923-2 0  9990,2 52607  53.2150  66.7955 0001092  68.8188 291.2921 15.08870013 48974,6917.789,95.436,540.409,538.898,0.0
52607.0,STARLINK-3947,PAYLOAD,2023-04-01 01:33:20,15.08845473,0.0001116,53.2151,63.8215,86.9244,273.1876,0.00019944,2.888e-05,0.0,0 STARLINK-3947,1 52607U 22052K   23091.06482288  .00002888  00000-0  19944-3 0  9990,2 52607  53.2151  63.8215 0001116  86.9244 273.1876 15.08845473 49075,6917.864,95.437,540.501,538.957,0.0
52607.0,STARLINK-3947,PAYLOAD,2023-04-01 07:54:53,15.08856448,0.0001131,53.2158,62.6317,96.7676,263.3445,0.00073611,0.00011452,0.0,0 STARLINK-3947,1 52607U 22052K   23091.32978066  .00011452  00000-0  73611-3 0  9991,2 52607  53.2158  62.6317 0001131  96.7676 263.3445 15.08856448 48736,6917.83,95.437,540.478,538.913,0.0
52607.0,STARLINK-3947,PAYLOAD,2023-04-02 04:34:54,15.0884341,0.0001148,53.217,58.7645,91.6126,268.4998,0.0012324,0.00019382,0.0,0 STARLINK-3947,1 52607U 22052K   23092.19090807  .00019382  00000-0  12324-2 0  9998,2 52607  53.2170  58.7645 0001148  91.6126 268.4998 15.08843410 49243,6917.87,95.437,540.529,538.941,0.0
52607.0,STARLINK-3947,PAYLOAD,2023-04-02 07:45:40,15.08850375,0.0001201,53.2173,58.169,91.9367,268.1763,0.0014081,0.00022199,0.0,0 STARLINK-3947,1 52607U 22052K   23092.32338728  .00022199  00000-0  14081-2 0  9992,2 52607  53.2173  58.1690 0001201  91.9367 268.1763 15.08850375 48884,6917.849,95.437,540.545,538.883,0.0
52607.0,STARLINK-3947,PAYLOAD,2023-04-02 22:04:08,15.08853261,0.0001282,53.218,55.494,95.6063,264.5076,0.00057729,8.915e-05,0.0,0 STARLINK-3947,1 52607U 22052K   23092.91954370  .00008915  00000-0  57729-3 0  9991,2 52607  53.2180  55.4940 0001282  95.6063 264.5076 15.08853261 48977,6917.84,95.437,540.592,538.818,0.0
52607.0,STARLINK-3947,PAYLOAD,2023-04-03 04:25:40,15.08863816,0.0001135,53.2179,54.3051,98.0833,262.0288,0.00070869,0.00011016,0.0,0 STARLINK-3947,1 52607U 22052K   23093.18449886  .00011016  00000-0  70869-3 0  9998,2 52607  53.2179  54.3051 0001135  98.0833 262.0288 15.08863816 49397,6917.808,95.436,540.458,538.887,0.0
52607.0,STARLINK-3947,PAYLOAD,2023-04-03 06:01:03,15.08866678,0.0001115,53.2179,54.0071,97.2404,262.8715,0.00076558,0.00011926,0.0,0 STARLINK-3947,1 52607U 22052K   23093.25073736  .00011926  00000-0  76558-3 0  9994,2 52607  53.2179  54.0071 0001115  97.2404 262.8715 15.08866678 49021,6917.799,95.436,540.435,538.893,0.0
52607.0,STARLINK-3947,PAYLOAD,2023-04-04 02:41:05,15.08838631,0.0001104,53.2186,50.1436,105.1303,254.9811,-1.6612e-05,-5.52e-06,0.0,0 STARLINK-3947,1 52607U 22052K   23094.11186349 -.00000552  00000-0 -16612-4 0  9996,2 52607  53.2186  50.1436 0001104 105.1303 254.9811 15.08838631 49539,6917.885,95.438,540.513,538.986,0.0
